[{"OBJECT_NAME":"STARLINK-6060","OBJECT_ID":"2023-078AD","EPOCH":"2026-03-09T21:17:56.872320","MEAN_MOTION":14.98332481,"ECCENTRICITY":0.00029192,"INCLINATION":70.0005,"RA_OF_ASC_NODE":323.9385,"ARG_OF_PERICENTER":268.0056,"MEAN_ANOMALY":92.0768,"EPHEMERIS_TYPE":0,"CLASSIFICATION_TYPE":"U","NORAD_CAT_ID":56794,"ELEMENT_SET_NO":999,"REV_AT_EPOCH":15320,"BSTAR":-3.3518413e-5,"MEAN_MOTION_DOT":-4.93e-6,"MEAN_MOTION_DDOT":0},{"OBJECT_NAME":"CZ-6A DEB","OBJECT_ID":"2022-151ADF","EPOCH":"2026-03-09T04:17:36.420864","MEAN_MOTION":14.87187722,"ECCENTRICITY":0.00591597,"INCLINATION":98.625,"RA_OF_ASC_NODE":143.8674,"ARG_OF_PERICENTER":184.385,"MEAN_ANOMALY":175.6853,"EPHEMERIS_TYPE":0,"CLASSIFICATION_TYPE":"U","NORAD_CAT_ID":56583,"ELEMENT_SET_NO":999,"REV_AT_EPOCH":15845,"BSTAR":0.004175752,"MEAN_MOTION_DOT":0.00038922,"MEAN_MOTION_DDOT":0}]
